[{"OBJECT_NAME":"NEXTSAT-1","OBJECT_ID":"2018-099BF","EPOCH":"2026-03-09T16:24:07.497504","MEAN_MOTION":15.08057555,"ECCENTRICITY":0.001132,"INCLINATION":97.4203,"RA_OF_ASC_NODE":114.8574,"ARG_OF_PERICENTER":323.961,"MEAN_ANOMALY":36.0854,"EPHEMERIS_TYPE":0,"CLASSIFICATION_TYPE":"U","NORAD_CAT_ID":43811,"ELEMENT_SET_NO":999,"REV_AT_EPOCH":39688,"BSTAR":0.00029857014,"MEAN_MOTION_DOT":4.546e-5,"MEAN_MOTION_DDOT":0},{"OBJECT_NAME":"STARLINK-4303","OBJECT_ID":"2022-101T","EPOCH":"2026-03-09T05:23:41.760096","MEAN_MOTION":15.08836273,"ECCENTRICITY":0.0001366,"INCLINATION":53.2179,"RA_OF_ASC_NODE":66.2102,"ARG_OF_PERICENTER":95.7159,"MEAN_ANOMALY":264.3989,"EPHEMERIS_TYPE":0,"CLASSIFICATION_TYPE":"U","NORAD_CAT_ID":53544,"ELEMENT_SET_NO":999,"REV_AT_EPOCH":19690,"BSTAR":2.7006e-6,"MEAN_MOTION_DOT":-2.45e-6,"MEAN_MOTION_DDOT":0}]
